#dP2024 10 17 12  0  0.00000000      96 __u+U IGS20 EXT  IAC
## 2336 388800.00000000   900.00000000 60600 0.5000000000000
+   52   G02G03G04G05G06G07G08G09G10G11G12G13G14G15G16G17G18
+        G19G20G21G22G23G24G25G26G27G28G29G31G32R01R02R03R04
+        R05R07R08R09R11R12R14R15R16R17R18R19R20R21R22R24R25
+        R26  0  0  0  0  0  0  0  0  0  0  0  0  0  0  0  0
+          0  0  0  0  0  0  0  0  0  0  0  0  0  0  0  0  0
++         8  7  6  7  8  7  7  8  6  7  8  5  6  8  7  8  7
++         7  7  6  6  7  6  8  7  7  8  7  8  7  6  9  9  8
++         7  7  7  8  7 11  6 10  7  7  9 10  9  8  8  8  7
++         8  0  0  0  0  0  0  0  0  0  0  0  0  0  0  0  0
++         0  0  0  0  0  0  0  0  0  0  0  0  0  0  0  0  0
%c M  cc GPS ccc cccc cccc cccc cccc ccccc ccccc ccccc ccccc
%c cc cc ccc ccc cccc cccc cccc cccc ccccc ccccc ccccc ccccc
%f  0.0000000  0.000000000  0.00000000000  0.000000000000000
%f  0.0000000  0.000000000  0.00000000000  0.000000000000000
%i    0    0    0    0      0      0      0      0         0
%i    0    0    0    0      0      0      0      0         0
/* IAC                                ULTRA-RAPID PREDICTION
/* S/V CLOCKS ARE ALIGNED TO GNSS TIME                      
/* G:C1WC2W R:C1PC2P E:C1XC5X C:C2IC6I J:C1CC2S             
/* PCV:IGS20_2317 OL/AL:FES2004  NONE     YN ORB:CoN CLK:CoN
*  2024 10 17 16  0  0.00000000
PG02 -14264.965261   6829.260176  21764.936857   -335.036689
PG03 -23111.872161  12733.764279   2276.610557    573.113244
PG04 -19091.856169   3606.463174 -18161.877603    463.362690
PG05  20941.751271  -1007.948828 -16526.045712   -190.090241
PG06   5382.120893  24900.289411  -7244.323200    -45.412889
PG07  -7059.438926  22515.761300 -11194.027301    -26.879952
PG08 -24787.299901  -4865.522751   8780.103746    387.136546
PG09  -9945.780384  11998.247760 -21605.482811    402.816191
PG10    136.973891 -16486.147436  20958.492721   -161.882704
PG11  12607.760791  14466.039289 -18354.914068   -744.611888
PG12  24342.938823  -8819.054670   5531.507895   -545.782858
PG13  22623.972280  13791.078251   2977.661501    681.891636
PG14  -4241.597630  18343.274978  18690.873798    519.625683
PG15  24982.547381   1760.601477   8552.560105    216.846222
PG16 -18674.273848  -5037.077178 -18735.993496   -152.433523
PG17   6018.004808  18481.558798  18436.359353    592.222918
PG18   6624.909403 -23322.594070 -10549.349130   -658.265047
PG19  15005.008572  19128.679965  11042.661993    551.652434
PG20  13524.140004   8005.428072 -21320.142692    369.584736
PG21 -15578.690709   -768.818598  21960.532896     99.560701
PG22   3442.937674  15384.783707  21810.679832    -71.847714
PG23  13275.004591 -19114.875590  12616.325479    343.660479
PG24  14983.992047  -4638.251231  20953.712535   -484.447533
PG25  18889.745101 -17607.731622  -5930.400814    499.488827
PG26  -9163.737709 -13050.285205 -21399.568155     53.402256
PG27 -23347.007523 -13095.429071  -1480.719161    -34.599120
PG28  -5339.113516 -25544.172049  -4952.952271   -449.014647
PG29  12454.867143  -9609.973221 -21459.858854   -570.587190
PG31 -11311.108508 -18386.100764 -15456.897848   -223.246305
PG32  -9413.674902 -18233.277200  17192.364714   -585.611222
PR01 -22757.421465  -6557.775695   9461.119043    101.352850
PR02 -24361.667900    391.938704  -7637.864863    -25.216135
PR03 -12373.553233   8270.539225 -20694.835438    109.598542
PR04   5914.565747  11095.734509 -22166.866823    259.701182
PR05  21034.607304   8297.710566 -11770.432247    139.292775
PR07  11749.431146  -8477.940561  21011.769199     93.122165
PR08  -6312.042982 -11182.171046  22101.667288     -6.407223
PR09  17010.874419 -10832.568613  15691.904557    215.243896
PR11   5660.570959 -19813.975003 -15036.363142      9.078211
PR12  -9114.434283  -6194.658662 -22980.559715     46.137632
PR14 -14883.090055  20701.681509    263.813845     27.096348
PR15  -4383.793107  19104.453999  16338.655675     74.820392
PR16   8918.112263   6231.633810  23081.244758     30.011887
PR17  -2713.593374  16459.993856  19330.855713    131.598255
PR18   6706.187643  23844.377375   6031.698471    167.335649
PR19  11874.241583  20792.488600  -8808.188348   -295.211032
PR20  11554.288032   2108.962455 -22624.085121   -120.606304
PR21   3328.951166 -15671.899974 -19828.925301   -143.568609
PR22  -6757.600377 -24140.463502  -4700.362931     18.100897
PR24 -11927.892289   -829.934299  22551.955964    -76.383298
PR25   3354.063647 -16685.016688 -18979.594240    -90.904392
PR26  -4528.872636 -11116.664710  22519.519300     90.772714
*  2024 10 17 16 15  0.00000000
PG02 -14687.341814   4453.832859  22134.710336   -335.029224
PG03 -22849.316309  12329.381928   5148.149366    573.123846
PG04 -20774.891014   2563.624017 -16422.290823    463.368819
PG05  19457.446824    270.393191 -18288.264215   -190.091368
PG06   5246.370008  25585.390389  -4428.965269    -45.437801
PG07  -7446.181508  21032.023803 -13524.457115    -26.876978
PG08 -25479.460907  -5426.418789   6142.900713    387.146885
PG09 -12132.168384  10960.010688 -21035.565344    402.831144
PG10   2079.500765 -17703.133119  19790.003367   -161.894805
PG11  12523.433580  16474.836696 -16648.977119   -744.614428
PG12  23758.279522  -8189.490423   8243.723598   -545.785258
PG13  22675.921174  14074.440632    121.143296    681.893266
PG14  -6058.749152  19314.832074  17122.254088    519.633261
PG15  25747.489574   2306.892558   5922.448515    216.850244
PG16 -16852.308856  -6165.695814 -20062.921936   -152.424476
PG17   4112.212441  17553.128886  19861.246537    592.211196
PG18   6897.930789 -21979.752527 -12991.097396   -658.266152
PG19  13717.563497  18540.856332  13395.210404    551.656653
PG20  11784.961660   9767.760531 -21627.870241    369.584427
PG21 -15983.293742  -3128.131739  21541.529266     99.559969
PG22   1352.671328  16509.217272  21225.627432    -71.850659
PG23  14436.620528 -19729.150601  10125.071664    343.667848
PG24  15445.790608  -2170.674148  21054.195279   -484.446304
PG25  19457.402544 -17647.314765  -3144.728912    499.488774
PG26  -7264.117447 -14537.696796 -21132.083660     53.393750
PG27 -22986.831708 -13171.291665  -4284.501226    -34.599268
PG28  -5133.423671 -25972.229491  -2133.420088   -449.026135
PG29  14502.788140  -8360.298943 -20692.460349   -570.584738
PG31 -11175.584303 -20020.192027 -13313.168727   -223.245770
PG32  -7536.757798 -17493.180615  18812.065783   -585.607141
PR01 -21423.653238  -6350.628547  12291.832436    101.354020
PR02 -25129.893521    488.260271  -4532.854886    -25.216295
PR03 -14833.127190   8141.496457 -19074.346429    109.599212
PR04   3144.414384  10785.949446 -22875.526406    259.702763
PR05  19437.802188   7988.468906 -14430.608336    139.293308
PR07  14239.215964  -8335.920547  19464.848546     93.122877
PR08  -3566.069619 -10898.966030  22842.547064     -6.407202
PR09  15832.688176  -9140.035799  17848.906660    215.245873
PR11   6519.537520 -21283.603591 -12463.170646      9.077444
PR12  -7510.994989  -8527.830479 -22811.723878     46.137993
PR14 -14693.247204  20629.749934  -2930.280954     27.096413
PR15  -5363.281879  20693.549884  13930.392488     74.820145
PR16   7321.913393   8574.066509  22887.684847     30.012143
PR17  -3662.077437  14165.394482  20923.309710    131.601317
PR18   6501.449239  22915.126566   9094.663242    167.337313
PR19  12405.331816  21546.914739  -5727.438510   -295.212291
PR20  12641.297874   4625.046655 -21645.503799   -120.606408
PR21   4287.050320 -13313.273321 -21315.552793   -143.571483
PR22  -6589.657726 -23370.910327  -7790.881298     18.090967
PR24 -13105.144376  -3285.312348  21653.728612    -76.384648
PR25   4223.682908 -14397.795170 -20610.218283    -90.900594
PR26  -1732.428128 -10861.306389  23028.742682     90.801115
EOF
